H1 CPF 01  gfz 2022 12 17 13  8512 tandemx   
H2 1003001  6202 36605    2022 12 17 12 59 42 2022 12 22 00 00 42   120 1 1  0 0 0
H9
10 0 59932  39582.000000  0   -1507590.608   6421391.223   1980756.252
10 0 59932  39702.000000  0   -1261141.225   6150552.268   2826982.624
10 0 59932  39822.000000  0    -998364.137   5767721.526   3623429.365
10 0 59932  39942.000000  0    -725758.866   5279379.060   4356082.014
10 0 59932  40062.000000  0    -449867.019   4693972.805   5012063.233
10 0 59932  40182.000000  0    -177121.516   4021759.945   5579858.678
10 0 59932  40302.000000  0      86296.843   3274619.475   6049514.925
10 0 59932  40422.000000  0     334593.668   2465833.735   6412810.421
10 0 59932  40542.000000  0     562483.969   1609846.285   6663392.918
10 0 59932  40662.000000  0     765301.355    722000.021   6796884.952
10 0 59932  40782.000000  0     939091.187   -181739.092   6810954.610
10 0 59932  40902.000000  0    1080686.537  -1085067.834   6705354.514
10 0 59932  41022.000000  0    1187765.723  -1971639.724   6481926.636
10 0 59932  41142.000000  0    1258890.541  -2825360.597   6144572.698
10 0 59932  41262.000000  0    1293524.433  -3630682.682   5699190.202
10 0 59932  41382.000000  0    1292029.883  -4372890.268   5153573.343
10 0 59932  41502.000000  0    1255646.906  -5038371.731   4517282.498
10 0 59932  41622.000000  0    1186451.849  -5614876.599   3801483.530
10 0 59932  41742.000000  0    1087297.178  -6091751.553   3018754.788
10 0 59932  41862.000000  0     961733.432  -6460146.548   2182865.710
10 0 59932  41982.000000  0     813914.077  -6713188.292   1308532.948
10 0 59932  42102.000000  0     648486.695  -6846116.870    411156.848
10 0 59932  42222.000000  0     470472.627  -6856382.269   -493458.111
10 0 59932  42342.000000  0     285137.070  -6743693.458  -1389392.759
10 0 59932  42462.000000  0      97855.496  -6510020.435  -2260902.081
10 0 59932  42582.000000  0     -86020.860  -6159552.346  -3092698.063
10 0 59932  42702.000000  0    -261297.701  -5698612.714  -3870222.225
10 0 59932  42822.000000  0    -423065.245  -5135532.764  -4579902.030
10 0 59932  42942.000000  0    -566817.210  -4480487.275  -5209384.249
10 0 59932  43062.000000  0    -688558.678  -3745299.308  -5747743.029
10 0 59932  43182.000000  0    -784900.344  -2943217.498  -6185660.138
10 0 59932  43302.000000  0    -853137.563  -2088671.230  -6515575.278
10 0 59932  43422.000000  0    -891313.065  -1197008.776  -6731804.887
10 0 59932  43542.000000  0    -898262.630   -284223.730  -6830630.170
10 0 59932  43662.000000  0    -873642.521    633327.533  -6810353.792
10 0 59932  43782.000000  0    -817938.467   1539211.482  -6671324.820
10 0 59932  43902.000000  0    -732456.715   2417204.057  -6415933.332
10 0 59932  44022.000000  0    -619296.879   3251574.254  -6048574.656
10 0 59932  44142.000000  0    -481306.534   4027362.947  -5575582.806
10 0 59932  44262.000000  0    -322018.194   4730650.612  -5005131.408
10 0 59932  44382.000000  0    -145570.197   5348810.632  -4347104.353
10 0 59932  44502.000000  0      43387.506   5870743.860  -3612934.940
10 0 59932  44622.000000  0     239801.321   6287087.991  -2815415.392
10 0 59932  44742.000000  0     438333.456   6590397.608  -1968479.756
10 0 59932  44862.000000  0     633490.339   6775290.530  -1086962.288
10 0 59932  44982.000000  0     819757.174   6838555.189   -186335.360
10 0 59932  45102.000000  0     991735.239   6779215.671    717567.761
10 0 59932  45222.000000  0    1144278.271   6598551.263   1608839.228
10 0 59932  45342.000000  0    1272623.162   6300070.944   2471784.696
10 0 59932  45462.000000  0    1372512.582   5889444.098   3291207.404
10 0 59932  45582.000000  0    1440307.076   5374388.538   4052683.479
10 0 59932  45702.000000  0    1473083.953   4764517.381   4742820.666
10 0 59932  45822.000000  0    1468719.130   4071149.161   5349498.344
10 0 59932  45942.000000  0    1425949.394   3307085.598   5862076.495
10 0 59932  46062.000000  0    1344417.007   2486368.517   6271577.332
10 0 59932  46182.000000  0    1224693.410   1624015.551   6570837.884
10 0 59932  46302.000000  0    1068282.746    735740.559   6754629.386
10 0 59932  46422.000000  0     877604.821   -162334.270   6819741.887
10 0 59932  46542.000000  0     655957.954  -1053969.547   6765037.710
10 0 59932  46662.000000  0     407461.749  -1923102.570   6591471.159
10 0 59932  46782.000000  0     136980.522  -2754136.588   6302073.083
10 0 59932  46902.000000  0    -149971.031  -3532222.447   5901900.462
10 0 59932  47022.000000  0    -447337.350  -4243524.684   5397950.688
10 0 59932  47142.000000  0    -748645.465  -4875469.661   4799046.364
10 0 59932  47262.000000  0   -1047141.663  -5416975.770   4115689.552
10 0 59932  47382.000000  0   -1335938.798  -5858658.554   3359881.319
10 0 59932  47502.000000  0   -1608169.671  -6193002.583   2544911.550
10 0 59932  47622.000000  0   -1857143.799  -6414498.517   1685124.743
10 0 59932  47742.000000  0   -2076504.460  -6519741.754    795663.033
10 0 59932  47862.000000  0   -2260379.660  -6507488.254   -107808.053
10 0 59932  47982.000000  0   -2403524.199  -6378667.100  -1009384.112
10 0 59932  48102.000000  0   -2501449.582  -6136349.123  -1893210.589
10 0 59932  48222.000000  0   -2550538.725  -5785672.785  -2743769.490
10 0 59932  48342.000000  0   -2548142.174  -5333728.990  -3546158.258
10 0 59932  48462.000000  0   -2492653.177  -4789407.632  -4286353.795
10 0 59932  48582.000000  0   -2383560.304  -4163211.783  -4951455.545
10 0 59932  48702.000000  0   -2221477.284  -3467045.484  -5529904.473
10 0 59932  48822.000000  0   -2008150.061  -2713980.137  -6011675.734
10 0 59932  48942.000000  0   -1746440.538  -1918003.799  -6388442.691
10 0 59932  49062.000000  0   -1440287.295  -1093758.824  -6653709.210
10 0 59932  49182.000000  0   -1094645.837   -256273.876  -6802910.080
10 0 59932  49302.000000  0    -715409.112    579305.484  -6833480.380
10 0 59932  49422.000000  0    -309308.205   1397983.678  -6744894.526
10 0 59932  49542.000000  0     116203.831   2185177.039  -6538673.953
10 0 59932  49662.000000  0     553084.097   2926967.387  -6218365.546
10 0 59932  49782.000000  0     992848.645   3610345.512  -5789488.196
10 0 59932  49902.000000  0    1426732.892   4223438.318  -5259446.145
10 0 59932  50022.000000  0    1845862.212   4755717.400  -4637413.112
10 0 59932  50142.000000  0    2241430.609   5198186.732  -3934184.781
10 0 59932  50262.000000  0    2604883.062   5543543.115  -3162000.278
10 0 59932  50382.000000  0    2928098.341   5786306.975  -2334336.625
10 0 59932  50502.000000  0    3203568.732   5922919.979  -1465676.977
10 0 59932  50622.000000  0    3424571.306   5951805.880   -571256.357
10 0 59932  50742.000000  0    3585325.758   5873391.861    333210.239
10 0 59932  50862.000000  0    3681134.845   5690089.339   1231810.744
10 0 59932  50982.000000  0    3708504.699   5406234.755   2108723.455
10 0 59932  51102.000000  0    3665241.014   5027993.008   2948503.881
10 0 59932  51222.000000  0    3550518.170   4563223.167   3736366.170
10 0 59932  51342.000000  0    3364920.438   4021309.876   4458447.733
10 0 59932  51462.000000  0    3110454.166   3412969.631   5102058.048
10 0 59932  51582.000000  0    2790526.715   2750030.722   5655902.085
10 0 59932  51702.000000  0    2409900.605   2045196.799   6110273.425
10 0 59932  51822.000000  0    1974621.422   1311799.050   6457220.029
10 0 59932  51942.000000  0    1491918.506    563540.041   6690677.387
10 0 59932  52062.000000  0     970082.277   -185762.642   6806567.630
10 0 59932  52182.000000  0     418321.038   -922430.418   6802867.543
10 0 59932  52302.000000  0    -153401.887  -1633173.942   6679642.218
10 0 59932  52422.000000  0    -734548.230  -2305332.666   6439043.495
10 0 59932  52542.000000  0   -1314198.544  -2927100.654   6085273.424
10 0 59932  52662.000000  0   -1881254.695  -3487734.248   5624514.499
10 0 59932  52782.000000  0   -2424651.275  -3977740.514   5064829.388
10 0 59932  52902.000000  0   -2933573.924  -4389043.731   4416027.460
10 0 59932  53022.000000  0   -3397678.362  -4715124.886   3689497.236
10 0 59932  53142.000000  0   -3807303.486  -4951130.782   2898008.136
10 0 59932  53262.000000  0   -4153673.943  -5093950.848   2055486.076
10 0 59932  53382.000000  0   -4429089.692  -5142260.064   1176765.785
10 0 59932  53502.000000  0   -4627096.659  -5096525.254    277323.800
10 0 59932  53622.000000  0   -4742633.980  -4958975.106   -627001.611
10 0 59932  53742.000000  0   -4772154.153  -4733534.482  -1520298.629
10 0 59932  53862.000000  0   -4713711.755  -4425723.687  -2386871.538
10 0 59932  53982.000000  0   -4567018.718  -4042525.484  -3211523.701
10 0 59932  54102.000000  0   -4333465.801  -3592225.106  -3979827.421
10 0 59932  54222.000000  0   -4016110.685  -3084228.071  -4678376.268
10 0 59932  54342.000000  0   -3619633.428  -2528859.719  -5295015.553
10 0 59932  54462.000000  0   -3150260.667  -1937151.933  -5819046.532
10 0 59932  54582.000000  0   -2615661.692  -1320622.187  -6241402.376
10 0 59932  54702.000000  0   -2024817.992   -691049.002  -6554794.397
10 0 59932  54822.000000  0   -1387868.702    -60248.673  -6753825.875
10 0 59932  54942.000000  0    -715937.123    560141.919  -6835073.540
10 0 59932  55062.000000  0     -20940.205   1158874.217  -6797140.203
10 0 59932  55182.000000  0     684617.293   1725286.431  -6640675.814
10 0 59932  55302.000000  0    1387861.789   2249488.683  -6368369.945
10 0 59932  55422.000000  0    2075781.382   2722533.453  -5984910.605
10 0 59932  55542.000000  0    2735462.441   3136567.995  -5496911.875
10 0 59932  55662.000000  0    3354329.017   3484965.284  -4912809.733
10 0 59932  55782.000000  0    3920382.344   3762433.959  -4242728.698
10 0 59932  55902.000000  0    4422436.623   3965103.684  -3498316.930
10 0 59932  56022.000000  0    4850345.516   4090583.391  -2692551.579
99
